     2.100          NAVIGATION                              RINEX VERSION / TYPE
fic2rin                                 02/26/2013 01:17:22 PGM / RUN BY / DATE
                                                            END OF HEADER
31 13  2 26  0  0  0.0  .304091256112D-03  .170530256582D-11  .000000000000D+00
     .870000000000D+02  .362500000000D+02  .379515808357D-08  .300776844503D+01
     .207126140594D-05  .808410916943D-02  .141467899084D-04  .515355482864D+04
     .172800000000D+06 -.558793544769D-08 -.295391737431D+01  .169500708580D-06
     .981033497400D+00  .116781250000D+03 -.768722196365D+00 -.750459831093D-08
     .403588239642D-10  .100000000000D+01  .172900000000D+04  .000000000000D+00
     .240000000000D+01  .000000000000D+00 -.130385160446D-07  .870000000000D+02
     .165606000000D+06  .400000000000D+01
32 13  2 26  0  0  0.0 -.538652297109D-03 -.318323145621D-11  .000000000000D+00
     .230000000000D+02  .569062500000D+02  .503806699857D-08 -.266489324734D+01
     .310689210892D-05  .116037684493D-01  .466965138912D-05  .515374316597D+04
     .172800000000D+06 -.176951289177D-06  .129845823759D+01  .128522515297D-06
     .949446664699D+00  .284218750000D+03 -.393337917543D+00 -.833784730481D-08
     .472519682341D-09  .100000000000D+01  .172900000000D+04  .000000000000D+00
     .240000000000D+01  .000000000000D+00 -.325962901115D-08  .230000000000D+02
     .165606000000D+06  .400000000000D+01
 9 13  2 25 23 59 28.0  .223168637604D-03  .261479726760D-11  .000000000000D+00
     .630000000000D+02  .425937500000D+02  .373551274196D-08 -.308087404999D+01
     .222027301788D-05  .171252032742D-01  .131521373987D-04  .515281966400D+04
     .172768000000D+06  .298023223877D-06 -.298185834305D+01  .633299350739D-07
     .984679419873D+00  .134375000000D+03  .163863086236D+01 -.731851913141D-08
     .378587198248D-10  .100000000000D+01  .172900000000D+04  .000000000000D+00
     .240000000000D+01  .000000000000D+00 -.558793544769D-08  .630000000000D+02
     .166956000000D+06  .400000000000D+01
16 13  2 25 23 59 44.0 -.252499710768D-03 -.113686837722D-12  .000000000000D+00
     .100000000000D+01  .681250000000D+02  .444304221340D-08  .597551419878D+00
     .358559191227D-05  .697973743081D-02  .371038913727D-05  .515358495712D+04
     .172784000000D+06  .465661287308D-07 -.188182611370D+01  .242143869400D-07
     .983493370744D+00  .314187500000D+03  .366654479031D-01 -.829570269217D-08
     .219294848796D-09  .100000000000D+01  .172900000000D+04  .000000000000D+00
     .240000000000D+01  .000000000000D+00 -.977888703346D-08  .100000000000D+01
     .168456000000D+06  .400000000000D+01
31 13  2 25 23 59 44.0  .304088462144D-03  .170530256582D-11  .000000000000D+00
     .100000000000D+01  .362500000000D+02  .379515808357D-08  .300543539937D+01
     .207126140594D-05  .808410102036D-02  .141467899084D-04  .515355483246D+04
     .172784000000D+06 -.558793544769D-08 -.295391726605D+01  .169500708580D-06
     .981033485697D+00  .116781250000D+03 -.768723030228D+00 -.750459831093D-08
     .403588239642D-10  .100000000000D+01  .172900000000D+04  .000000000000D+00
     .240000000000D+01  .000000000000D+00 -.130385160446D-07  .100000000000D+01
     .169956000000D+06  .400000000000D+01
